[{"OBJECT_NAME":"STARLINK-31135","OBJECT_ID":"2024-011G","EPOCH":"2026-03-09T23:23:14.938080","MEAN_MOTION":15.30175302,"ECCENTRICITY":9.97e-5,"INCLINATION":53.1624,"RA_OF_ASC_NODE":10.2627,"ARG_OF_PERICENTER":88.6341,"MEAN_ANOMALY":271.4774,"EPHEMERIS_TYPE":0,"CLASSIFICATION_TYPE":"U","NORAD_CAT_ID":58771,"ELEMENT_SET_NO":999,"REV_AT_EPOCH":12034,"BSTAR":0.00011418661,"MEAN_MOTION_DOT":3.022e-5,"MEAN_MOTION_DDOT":0},{"OBJECT_NAME":"NUSHSAT1","OBJECT_ID":"2025-052B","EPOCH":"2026-03-09T15:31:41.225952","MEAN_MOTION":15.31903202,"ECCENTRICITY":0.0005501,"INCLINATION":97.4095,"RA_OF_ASC_NODE":325.7239,"ARG_OF_PERICENTER":84.7512,"MEAN_ANOMALY":275.4357,"EPHEMERIS_TYPE":0,"CLASSIFICATION_TYPE":"U","NORAD_CAT_ID":63211,"ELEMENT_SET_NO":999,"REV_AT_EPOCH":5488,"BSTAR":0.00074857,"MEAN_MOTION_DOT":0.00023034,"MEAN_MOTION_DDOT":0}]
